start=new Date('2021-08-25T00:00:00.000Z').valueOf();
sats=[{"MEAN_ANOMALY":"342.0564","CENTER_NAME":"EARTH","LAUNCH_DATE":"2021-02-16","REF_FRAME":"TEME","TLE_LINE1":"1 47659U 21012AR  21236.58097829  .00025993  00000-0  18876-3 0  9990","ARG_OF_PERICENTER":"18.0627","EPHEMERIS_TYPE":"0","MEAN_ELEMENT_THEORY":"SGP4","MEAN_MOTION":"15.73221201","DECAY_DATE":null,"OBJECT_TYPE":"PAYLOAD","ECCENTRICITY":"0.00049060","RCS_SIZE":"LARGE","REV_AT_EPOCH":"3110","SITE":"AFETR","BSTAR":"0.00018876000000","NORAD_CAT_ID":"47659","MEAN_MOTION_DOT":"0.00025993","FILE":"3102457","OBJECT_ID":"2021-012AR","TIME_SYSTEM":"UTC","INCLINATION":"53.0425","GP_ID":"183361111","SEMIMAJOR_AXIS":"6727.835","CLASSIFICATION_TYPE":"U","OBJECT_NAME":"STARLINK-2043","MEAN_MOTION_DDOT":"0.0000000000000","COUNTRY_CODE":"US","PERIAPSIS":"346.399","TLE_LINE2":"2 47659  53.0425 239.8743 0004906  18.0627 342.0564 15.73221201 31104","APOAPSIS":"353.000","RA_OF_ASC_NODE":"239.8743","EPOCH":"2021-08-24T13:56:36.524256","PERIOD":"91.532","ELEMENT_SET_NO":"999"},{"RA_OF_ASC_NODE":"239.2538","PERIOD":"91.532","ELEMENT_SET_NO":"999","EPOCH":"2021-08-24T17:00:22.231296","APOAPSIS":"353.231","TLE_LINE2":"2 47660  53.0424 239.2538 0005241  20.5327 339.5901 15.73219475 31127","PERIAPSIS":"346.179","COUNTRY_CODE":"US","MEAN_MOTION_DDOT":"0.0000000000000","OBJECT_NAME":"STARLINK-2044","INCLINATION":"53.0424","TIME_SYSTEM":"UTC","CLASSIFICATION_TYPE":"U","SEMIMAJOR_AXIS":"6727.840","GP_ID":"183387291","NORAD_CAT_ID":"47660","MEAN_MOTION_DOT":"0.00011159","OBJECT_ID":"2021-012AS","FILE":"3102580","REV_AT_EPOCH":"3112","RCS_SIZE":"MEDIUM","OBJECT_TYPE":"PAYLOAD","ECCENTRICITY":"0.00052410","BSTAR":"0.00008372300000","SITE":"AFETR","DECAY_DATE":null,"MEAN_MOTION":"15.73219475","EPHEMERIS_TYPE":"0","MEAN_ELEMENT_THEORY":"SGP4","REF_FRAME":"TEME","ARG_OF_PERICENTER":"20.5327","TLE_LINE1":"1 47660U 21012AS  21236.70859064  .00011159  00000-0  83723-4 0  9996","MEAN_ANOMALY":"339.5901","LAUNCH_DATE":"2021-02-16","CENTER_NAME":"EARTH"},{"BSTAR":"0.00003983100000","SITE":"AFETR","RCS_SIZE":"LARGE","REV_AT_EPOCH":"3037","OBJECT_TYPE":"PAYLOAD","ECCENTRICITY":"0.00003000","DECAY_DATE":null,"MEAN_MOTION":"15.06387920","CLASSIFICATION_TYPE":"U","GP_ID":"183386039","SEMIMAJOR_AXIS":"6925.386","INCLINATION":"53.0549","TIME_SYSTEM":"UTC","OBJECT_ID":"2021-012AT","FILE":"3102580","NORAD_CAT_ID":"47661","MEAN_MOTION_DOT":"0.00000312","ARG_OF_PERICENTER":"142.6316","TLE_LINE1":"1 47661U 21012AT  21236.85008837  .00000312  00000-0  39831-4 0  9997","REF_FRAME":"TEME","CENTER_NAME":"EARTH","LAUNCH_DATE":"2021-02-16","MEAN_ANOMALY":"217.4693","MEAN_ELEMENT_THEORY":"SGP4","EPHEMERIS_TYPE":"0","APOAPSIS":"547.458","TLE_LINE2":"2 47661  53.0549 293.9375 0000300 142.6316 217.4693 15.06387920 30372","PERIAPSIS":"547.043","PERIOD":"95.593","ELEMENT_SET_NO":"999","EPOCH":"2021-08-24T20:24:07.635168","RA_OF_ASC_NODE":"293.9375","MEAN_MOTION_DDOT":"0.0000000000000","OBJECT_NAME":"STARLINK-2051","COUNTRY_CODE":"US"},{"COUNTRY_CODE":"US","MEAN_MOTION_DDOT":"0.0000000000000","OBJECT_NAME":"STARLINK-2052","PERIOD":"95.592","ELEMENT_SET_NO":"999","EPOCH":"2021-08-24T21:31:46.155936","RA_OF_ASC_NODE":"293.7335","PERIAPSIS":"546.843","APOAPSIS":"547.605","TLE_LINE2":"2 47662  53.0564 293.7335 0000550 107.8456 252.2593 15.06396668 30408","MEAN_ELEMENT_THEORY":"SGP4","EPHEMERIS_TYPE":"0","LAUNCH_DATE":"2021-02-16","CENTER_NAME":"EARTH","MEAN_ANOMALY":"252.2593","ARG_OF_PERICENTER":"107.8456","TLE_LINE1":"1 47662U 21012AU  21236.89706199  .00000634  00000-0  61454-4 0  9991","REF_FRAME":"TEME","OBJECT_ID":"2021-012AU","FILE":"3102580","NORAD_CAT_ID":"47662","MEAN_MOTION_DOT":"0.00000634","CLASSIFICATION_TYPE":"U","GP_ID":"183386789","SEMIMAJOR_AXIS":"6925.359","TIME_SYSTEM":"UTC","INCLINATION":"53.0564","DECAY_DATE":null,"MEAN_MOTION":"15.06396668","BSTAR":"0.00006145400000","SITE":"AFETR","RCS_SIZE":"LARGE","REV_AT_EPOCH":"3040","OBJECT_TYPE":"PAYLOAD","ECCENTRICITY":"0.00005500"},{"SITE":"AFETR","BSTAR":"0.00002224800000","ECCENTRICITY":"0.00048600","OBJECT_TYPE":"PAYLOAD","REV_AT_EPOCH":"3109","RCS_SIZE":"LARGE","MEAN_MOTION":"15.73225667","DECAY_DATE":null,"SEMIMAJOR_AXIS":"6727.822","GP_ID":"183360611","CLASSIFICATION_TYPE":"U","TIME_SYSTEM":"UTC","INCLINATION":"53.0428","FILE":"3102457","OBJECT_ID":"2021-012AV","MEAN_MOTION_DOT":"0.00002502","NORAD_CAT_ID":"47663","TLE_LINE1":"1 47663U 21012AV  21236.39027094  .00002502  00000-0  22248-4 0  9991","ARG_OF_PERICENTER":"19.0029","REF_FRAME":"TEME","CENTER_NAME":"EARTH","LAUNCH_DATE":"2021-02-16","MEAN_ANOMALY":"341.1170","MEAN_ELEMENT_THEORY":"SGP4","EPHEMERIS_TYPE":"0","TLE_LINE2":"2 47663  53.0428 240.8250 0004860  19.0029 341.1170 15.73225667 31094","APOAPSIS":"352.957","PERIAPSIS":"346.417","PERIOD":"91.532","ELEMENT_SET_NO":"999","EPOCH":"2021-08-24T09:21:59.409216","RA_OF_ASC_NODE":"240.8250","MEAN_MOTION_DDOT":"0.0000000000000","OBJECT_NAME":"STARLINK-2053","COUNTRY_CODE":"US"},{"MEAN_MOTION":"15.06399441","DECAY_DATE":null,"OBJECT_TYPE":"PAYLOAD","ECCENTRICITY":"0.00004590","RCS_SIZE":"LARGE","REV_AT_EPOCH":"3040","SITE":"AFETR","BSTAR":"0.00006367200000","NORAD_CAT_ID":"47664","MEAN_MOTION_DOT":"0.00000667","FILE":"3102580","OBJECT_ID":"2021-012AW","TIME_SYSTEM":"UTC","INCLINATION":"53.0563","GP_ID":"183387791","SEMIMAJOR_AXIS":"6925.350","CLASSIFICATION_TYPE":"U","MEAN_ANOMALY":"224.6990","CENTER_NAME":"EARTH","LAUNCH_DATE":"2021-02-16","REF_FRAME":"TEME","TLE_LINE1":"1 47664U 21012AW  21236.89800043  .00000667  00000-0  63672-4 0  9996","ARG_OF_PERICENTER":"135.4036","EPHEMERIS_TYPE":"0","MEAN_ELEMENT_THEORY":"SGP4","PERIAPSIS":"546.897","TLE_LINE2":"2 47664  53.0563 293.7364 0000459 135.4036 224.6990 15.06399441 30406","APOAPSIS":"547.533","RA_OF_ASC_NODE":"293.7364","EPOCH":"2021-08-24T21:33:07.237152","PERIOD":"95.592","ELEMENT_SET_NO":"999","OBJECT_NAME":"STARLINK-2054","MEAN_MOTION_DDOT":"0.0000000000000","COUNTRY_CODE":"US"},{"COUNTRY_CODE":"US","MEAN_MOTION_DDOT":"0.0000000000000","OBJECT_NAME":"STARLINK-2056","PERIOD":"95.593","ELEMENT_SET_NO":"999","EPOCH":"2021-08-24T13:00:15.168672","RA_OF_ASC_NODE":"290.3606","PERIAPSIS":"541.428","TLE_LINE2":"2 47665  53.0470 290.3606 0008398 126.4835 233.6929 15.06390229 30411","APOAPSIS":"553.059","MEAN_ELEMENT_THEORY":"SGP4","EPHEMERIS_TYPE":"0","CENTER_NAME":"EARTH","LAUNCH_DATE":"2021-02-16","MEAN_ANOMALY":"233.6929","TLE_LINE1":"1 47665U 21012AX  21236.54184223  .00000160  00000-0  29812-4 0  9990","ARG_OF_PERICENTER":"126.4835","REF_FRAME":"TEME","FILE":"3102457","OBJECT_ID":"2021-012AX","NORAD_CAT_ID":"47665","MEAN_MOTION_DOT":"0.00000160","SEMIMAJOR_AXIS":"6925.379","GP_ID":"183361603","CLASSIFICATION_TYPE":"U","INCLINATION":"53.0470","TIME_SYSTEM":"UTC","MEAN_MOTION":"15.06390229","DECAY_DATE":null,"SITE":"AFETR","BSTAR":"0.00002981200000","OBJECT_TYPE":"PAYLOAD","ECCENTRICITY":"0.00083980","REV_AT_EPOCH":"3041","RCS_SIZE":"LARGE"},{"LAUNCH_DATE":"2021-02-16","CENTER_NAME":"EARTH","MEAN_ANOMALY":"200.7562","TLE_LINE1":"1 47666U 21012AY  21236.84039161 -.00001454  00000-0 -78800-4 0  9994","ARG_OF_PERICENTER":"159.3461","REF_FRAME":"TEME","MEAN_ELEMENT_THEORY":"SGP4","EPHEMERIS_TYPE":"0","MEAN_MOTION":"15.06390055","DECAY_DATE":null,"SITE":"AFETR","BSTAR":"-0.00007880000000","OBJECT_TYPE":"PAYLOAD","ECCENTRICITY":"0.00008410","RCS_SIZE":"LARGE","REV_AT_EPOCH":"3046","FILE":"3102580","OBJECT_ID":"2021-012AY","MEAN_MOTION_DOT":"-0.00001454","NORAD_CAT_ID":"47666","GP_ID":"183386290","SEMIMAJOR_AXIS":"6925.379","CLASSIFICATION_TYPE":"U","TIME_SYSTEM":"UTC","INCLINATION":"53.0552","OBJECT_NAME":"STARLINK-2057","MEAN_MOTION_DDOT":"0.0000000000000","COUNTRY_CODE":"US","PERIAPSIS":"546.662","TLE_LINE2":"2 47666  53.0552 288.9829 0000841 159.3461 200.7562 15.06390055 30468","APOAPSIS":"547.826","ELEMENT_SET_NO":"999","PERIOD":"95.593","EPOCH":"2021-08-24T20:10:09.835104","RA_OF_ASC_NODE":"288.9829"},{"PERIAPSIS":"546.537","TLE_LINE2":"2 47667  53.0573 315.0781 0000981 115.7537 244.3554 15.06399210 30058","APOAPSIS":"547.895","RA_OF_ASC_NODE":"315.0781","PERIOD":"95.592","EPOCH":"2021-08-24T14:20:32.208864","ELEMENT_SET_NO":"999","MEAN_MOTION_DDOT":"0.0000000000000","OBJECT_NAME":"STARLINK-2058","COUNTRY_CODE":"US","MEAN_MOTION":"15.06399210","DECAY_DATE":null,"OBJECT_TYPE":"PAYLOAD","ECCENTRICITY":"0.00009810","REV_AT_EPOCH":"3005","RCS_SIZE":"LARGE","SITE":"AFETR","BSTAR":"0.00013274000000","MEAN_MOTION_DOT":"0.00001696","NORAD_CAT_ID":"47667","FILE":"3102580","OBJECT_ID":"2021-012AZ","INCLINATION":"53.0573","TIME_SYSTEM":"UTC","GP_ID":"183387541","SEMIMAJOR_AXIS":"6925.351","CLASSIFICATION_TYPE":"U","MEAN_ANOMALY":"244.3554","CENTER_NAME":"EARTH","LAUNCH_DATE":"2021-02-16","REF_FRAME":"TEME","TLE_LINE1":"1 47667U 21012AZ  21236.59759501  .00001696  00000-0  13274-3 0  9993","ARG_OF_PERICENTER":"115.7537","EPHEMERIS_TYPE":"0","MEAN_ELEMENT_THEORY":"SGP4"},{"REF_FRAME":"TEME","TLE_LINE1":"1 47668U 21012BA  21236.57364617 -.00001071  00000-0 -53063-4 0  9992","ARG_OF_PERICENTER":"92.7634","MEAN_ANOMALY":"267.3420","LAUNCH_DATE":"2021-02-16","CENTER_NAME":"EARTH","EPHEMERIS_TYPE":"0","MEAN_ELEMENT_THEORY":"SGP4","OBJECT_TYPE":"PAYLOAD","ECCENTRICITY":"0.00005650","REV_AT_EPOCH":"3035","RCS_SIZE":"LARGE","SITE":"AFETR","BSTAR":"-0.00005306300000","MEAN_MOTION":"15.06392348","DECAY_DATE":null,"TIME_SYSTEM":"UTC","INCLINATION":"53.0559","GP_ID":"183361352","SEMIMAJOR_AXIS":"6925.372","CLASSIFICATION_TYPE":"U","NORAD_CAT_ID":"47668","MEAN_MOTION_DOT":"-0.00001071","FILE":"3102457","OBJECT_ID":"2021-012BA","OBJECT_NAME":"STARLINK-2059","MEAN_MOTION_DDOT":"0.0000000000000","COUNTRY_CODE":"US","TLE_LINE2":"2 47668  53.0559 295.2013 0000565  92.7634 267.3420 15.06392348 30355","APOAPSIS":"547.628","PERIAPSIS":"546.846","RA_OF_ASC_NODE":"295.2013","PERIOD":"95.593","ELEMENT_SET_NO":"999","EPOCH":"2021-08-24T13:46:03.029088"}];
